From: horizons@ssd.jpl.nasa.gov (Horizons Ephemeris System)
Subject: [Horizons] SMALL BODY #C(500@10)_T(384P/Kowalski) (1/1)
Date: March 1, 2021 at 1:23:11 PM PST

Automated mail xmit by MAIL_REQUEST, PID= 2301 Mon Mar  1 13:23:11 2021
++++++++++++++++++++++++++++++++ (part 1 of 1)  +++++++++++++++++++++++++++++++
*******************************************************************************
JPL/HORIZONS                    384P/Kowalski              2021-Mar-01 13:23:11
Rec #:90001307 (+COV) Soln.date: 2020-Oct-18_17:47:03    # obs: 562 (2014-2020)

IAU76/J2000 helio. ecliptic osc. elements (au, days, deg., period=Julian yrs):

 EPOCH=  2458250.5 ! 2018-May-12.0000000 (TDB)    RMSW= n.a.
  EC= .6151793178094626   QR= 1.119695890596388   TP= 2458767.6555513619
  OM= 354.6259153705682   W= 37.05522118227328    IN= 7.295751593922165
  A= 2.909656217599006    MA= 257.3018202502774   ADIST= 4.699616544601623
  PER= 4.9633023626922    N= .19858276            ANGMOM= .023133527
  DAN= 1.21299            DDN= 3.55269            L= 31.4574047
  B= 4.3887262            MOID= .14150999         TP= 2019-Oct-11.1555513619

Comet physical (GM= km^3/s^2; RAD= km):
  GM= n.a.                RAD= n.a.
  M1=  19.9     M2=  n.a.     k1=  4.5    k2= n.a.     PHCOF= n.a.

COMET comments 
1: soln ref.= JPL#21, data arc: 2014-10-18 to 2020-01-20
2: k1=4.5;
*******************************************************************************


*******************************************************************************
Ephemeris / MAIL_REQUEST Mon Mar  1 13:23:11 2021 Pasadena, USA  / Horizons
*******************************************************************************
Target body name: 384P/Kowalski                   {source: JPL#21}
Center body name: Sun (10)                        {source: DE431}
Center-site name: BODY CENTER
*******************************************************************************
Start time      : A.D. 1990-Jan-01 00:00:00.0000 TDB
Stop  time      : A.D. 2020-Dec-31 00:00:00.0000 TDB
Step-size       : 10080 minutes
*******************************************************************************
Center geodetic : 0.00000000,0.00000000,0.0000000 {E-lon(deg),Lat(deg),Alt(km)}
Center cylindric: 0.00000000,0.00000000,0.0000000 {E-lon(deg),Dxy(km),Dz(km)}
Center radii    : 696000.0 x 696000.0 x 696000.0 k{Equator, meridian, pole}    
Small perturbers: Yes                             {source: SB431-N16}
Output units    : AU-D
Output type     : GEOMETRIC cartesian states
Output format   : 6 (LT, range, and range-rate)
Reference frame : Ecliptic of J2000.0
*******************************************************************************
Initial IAU76/J2000 heliocentric ecliptic osculating elements (au, days, deg.):
 EPOCH=  2458250.5 ! 2018-May-12.0000000 (TDB)    RMSW= n.a.                  
  EC= .6151793178094626   QR= 1.119695890596388   TP= 2458767.6555513619      
  OM= 354.6259153705682   W= 37.05522118227328    IN= 7.295751593922165       
 Equivalent ICRF heliocentric equatorial cartesian coordinates (au, au/d):
  X=-2.179119238834515E+00  Y=-2.927080811467285E+00  Z=-1.768347993087276E+00
 VX= 6.648943228282078E-03 VY=-1.961026694601272E-04 VZ=-2.447279766032060E-05
Comet physical (GM= km^3/s^2; RAD= km):                                        
  GM= n.a.                RAD= n.a.                                           
  M1=  19.9     M2=  n.a.     k1=  4.5    k2= n.a.     PHCOF= n.a.            
*******************************************************************************
           JDTDB,            Calendar Date (TDB),                     LT,                     RG,                     RR,
**************************************************************************************************************************
$$SOE
2451742.500000000, A.D. 2000-Jul-17 00:00:00.0000,  1.733254675258773E-02,  3.001037440785900E+00,  5.945455960066587E-03,
2451749.500000000, A.D. 2000-Jul-24 00:00:00.0000,  1.757112091977323E-02,  3.042345277328795E+00,  5.856872014340464E-03,
2451756.500000000, A.D. 2000-Jul-31 00:00:00.0000,  1.780612485102831E-02,  3.083034946682960E+00,  5.768843893632553E-03,
2451763.500000000, A.D. 2000-Aug-07 00:00:00.0000,  1.803758181704951E-02,  3.123110478044594E+00,  5.681409570719786E-03,
2451770.500000000, A.D. 2000-Aug-14 00:00:00.0000,  1.826551644774215E-02,  3.162576135949610E+00,  5.594598801079575E-03,
2451777.500000000, A.D. 2000-Aug-21 00:00:00.0000,  1.848995447001673E-02,  3.201436374874475E+00,  5.508436580751179E-03,
2451784.500000000, A.D. 2000-Aug-28 00:00:00.0000,  1.871092253741011E-02,  3.239695809736039E+00,  5.422943433842528E-03,
2451791.500000000, A.D. 2000-Sep-04 00:00:00.0000,  1.892844801611409E-02,  3.277359178843526E+00,  5.338134079031203E-03,
2451798.500000000, A.D. 2000-Sep-11 00:00:00.0000,  1.914255876311496E-02,  3.314431305484601E+00,  5.254018303854929E-03,
2451805.500000000, A.D. 2000-Sep-18 00:00:00.0000,  1.935328295160464E-02,  3.350917067696224E+00,  5.170602111844439E-03,
2451812.500000000, A.D. 2000-Sep-25 00:00:00.0000,  1.956064893331567E-02,  3.386821374428714E+00,  5.087888424159969E-03,
2451819.500000000, A.D. 2000-Oct-02 00:00:00.0000,  1.976468512408084E-02,  3.422149145730999E+00,  5.005877561567058E-03,
2451826.500000000, A.D. 2000-Oct-09 00:00:00.0000,  1.996541990682552E-02,  3.456905295954271E+00,  4.924567635186964E-03,
2451833.500000000, A.D. 2000-Oct-16 00:00:00.0000,  2.016288154902247E-02,  3.491094719459715E+00,  4.843954868977871E-03,
2451840.500000000, A.D. 2000-Oct-23 00:00:00.0000,  2.035709813091928E-02,  3.524722278191483E+00,  4.764033788099579E-03,
2451847.500000000, A.D. 2000-Oct-30 00:00:00.0000,  2.054809747517166E-02,  3.557792789493082E+00,  4.684797053332185E-03,
2451854.500000000, A.D. 2000-Nov-06 00:00:00.0000,  2.073590706220536E-02,  3.590311011452735E+00,  4.606235071150610E-03,
2451861.500000000, A.D. 2000-Nov-13 00:00:00.0000,  2.092055395846147E-02,  3.622281630479435E+00,  4.528337450022304E-03,
2451868.500000000, A.D. 2000-Nov-20 00:00:00.0000,  2.110206483818270E-02,  3.653709265075147E+00,  4.451095233781860E-03,
2451875.500000000, A.D. 2000-Nov-27 00:00:00.0000,  2.128046601724717E-02,  3.684598471692916E+00,  4.374499221141514E-03,
2451882.500000000, A.D. 2000-Dec-04 00:00:00.0000,  2.145578340925080E-02,  3.714953737132789E+00,  4.298538734911064E-03,
2451889.500000000, A.D. 2000-Dec-11 00:00:00.0000,  2.162804247540419E-02,  3.744779469866728E+00,  4.223202186393031E-03,
2451896.500000000, A.D. 2000-Dec-18 00:00:00.0000,  2.179726819880329E-02,  3.774079995583695E+00,  4.148477562968503E-03,
2451903.500000000, A.D. 2000-Dec-25 00:00:00.0000,  2.196348507204431E-02,  3.802859555045274E+00,  4.074352634653360E-03,
2451910.500000000, A.D. 2001-Jan-01 00:00:00.0000,  2.212671709075660E-02,  3.831122302965887E+00,  4.000815061272869E-03,
2451917.500000000, A.D. 2001-Jan-08 00:00:00.0000,  2.228698775081357E-02,  3.858872307529909E+00,  3.927852471667946E-03,
2451924.500000000, A.D. 2001-Jan-15 00:00:00.0000,  2.244432004815526E-02,  3.886113550360931E+00,  3.855452505149350E-03,
2451931.500000000, A.D. 2001-Jan-22 00:00:00.0000,  2.259873647764424E-02,  3.912849926323668E+00,  3.783602683543402E-03,
2451938.500000000, A.D. 2001-Jan-29 00:00:00.0000,  2.275025901834735E-02,  3.939085240975575E+00,  3.712289832501999E-03,
2451945.500000000, A.D. 2001-Feb-05 00:00:00.0000,  2.289890909425305E-02,  3.964823203765266E+00,  3.641499794757971E-03,
2451952.500000000, A.D. 2001-Feb-12 00:00:00.0000,  2.304470757234706E-02,  3.990067427699317E+00,  3.571219677740347E-03,
2451959.500000000, A.D. 2001-Feb-19 00:00:00.0000,  2.318767484754626E-02,  4.014821444048120E+00,  3.501438738622660E-03,
2451966.500000000, A.D. 2001-Feb-26 00:00:00.0000,  2.332783088393088E-02,  4.039088709485013E+00,  3.432146110221931E-03,
2451973.500000000, A.D. 2001-Mar-05 00:00:00.0000,  2.346519519217918E-02,  4.062872602179215E+00,  3.363330302626754E-03,
2451980.500000000, A.D. 2001-Mar-12 00:00:00.0000,  2.359978681450381E-02,  4.086176419187643E+00,  3.294979699809909E-03,
2451987.500000000, A.D. 2001-Mar-19 00:00:00.0000,  2.373162432575700E-02,  4.109003376646264E+00,  3.227082819702193E-03,
2451994.500000000, A.D. 2001-Mar-26 00:00:00.0000,  2.386072584069314E-02,  4.131356611027567E+00,  3.159628389026788E-03,
2452001.500000000, A.D. 2001-Apr-02 00:00:00.0000,  2.398710902290227E-02,  4.153239180687370E+00,  3.092605364063381E-03,
2452008.500000000, A.D. 2001-Apr-09 00:00:00.0000,  2.411079109426312E-02,  4.174654067501534E+00,  3.026002936279315E-03,
2452015.500000000, A.D. 2001-Apr-16 00:00:00.0000,  2.423178884380751E-02,  4.195604178400807E+00,  2.959810480284019E-03,
2452022.500000000, A.D. 2001-Apr-23 00:00:00.0000,  2.435011863001417E-02,  4.216092345767980E+00,  2.894017222337530E-03,
2452029.500000000, A.D. 2001-Apr-30 00:00:00.0000,  2.446579635913205E-02,  4.236121323684684E+00,  2.828611429138693E-03,
2452036.500000000, A.D. 2001-May-07 00:00:00.0000,  2.457883744550441E-02,  4.255693781061725E+00,  2.763580854961135E-03,
2452043.500000000, A.D. 2001-May-14 00:00:00.0000,  2.468925684471037E-02,  4.274812307377351E+00,  2.698915351319012E-03,
2452050.500000000, A.D. 2001-May-21 00:00:00.0000,  2.479706913838226E-02,  4.293479427362938E+00,  2.634606124512019E-03,
2452057.500000000, A.D. 2001-May-28 00:00:00.0000,  2.490228854363388E-02,  4.311697602635432E+00,  2.570643816892475E-03,
2452064.500000000, A.D. 2001-Jun-04 00:00:00.0000,  2.500492888772853E-02,  4.329469227311257E+00,  2.507018584295321E-03,
2452071.500000000, A.D. 2001-Jun-11 00:00:00.0000,  2.510500359743695E-02,  4.346796626163703E+00,  2.443720504313294E-03,
2452078.500000000, A.D. 2001-Jun-18 00:00:00.0000,  2.520252569992385E-02,  4.363682054776417E+00,  2.380739745657279E-03,
2452085.500000000, A.D. 2001-Jun-25 00:00:00.0000,  2.529750782775711E-02,  4.380127700410724E+00,  2.318066624880562E-03,
